{"type": "FeatureCollection", "features": [{"type": "Feature", "properties": {"norad_id": 37846, "name": "GSAT0101 (GALILEO-PFM)", "group": "galileo", "lat": 36.65434940754164, "lon": 137.98502161590707, "alt_km": 23226.30651188622, "timestamp": "2025-12-11T22:43:47.531534+00:00", "meta": {"OBJECT_NAME": "GSAT0101 (GALILEO-PFM)", "OBJECT_ID": "2011-060A", "EPOCH": "2025-12-08T19:04:30.018432", "MEAN_MOTION": 1.70475601, "ECCENTRICITY": 0.00029509, "INCLINATION": 57.0536, "RA_OF_ASC_NODE": 346.9268, "ARG_OF_PERICENTER": 313.0699, "MEAN_ANOMALY": 46.9223, "EPHEMERIS_TYPE": 0, "CLASSIFICATION_TYPE": "U", "NORAD_CAT_ID": 37846, "ELEMENT_SET_NO": 999, "REV_AT_EPOCH": 8787, "BSTAR": 0, "MEAN_MOTION_DOT": -8.7e-07, "MEAN_MOTION_DDOT": 0}, "tle": {"line1": "1 37846U 11060A   25342.79479188 -.00000087  00000+0  00000+0 0  9999", "line2": "2 37846  57.0536 346.9268 0002950 313.0699  46.9223  1.70475601 87878"}}, "geometry": {"type": "Point", "coordinates": [137.98502161590707, 36.65434940754164]}}, {"type": "Feature", "properties": {"norad_id": 37847, "name": "GSAT0102 (GALILEO-FM2)", "group": "galileo", "lat": -0.05844083795442893, "lon": 166.8787280931144, "alt_km": 23231.423892954, "timestamp": "2025-12-11T22:43:47.531557+00:00", "meta": {"OBJECT_NAME": "GSAT0102 (GALILEO-FM2)", "OBJECT_ID": "2011-060B", "EPOCH": "2025-12-10T12:23:27.701376", "MEAN_MOTION": 1.70475849, "ECCENTRICITY": 0.00049481, "INCLINATION": 57.054, "RA_OF_ASC_NODE": 346.8806, "ARG_OF_PERICENTER": 308.752, "MEAN_ANOMALY": 73.2267, "EPHEMERIS_TYPE": 0, "CLASSIFICATION_TYPE": "U", "NORAD_CAT_ID": 37847, "ELEMENT_SET_NO": 999, "REV_AT_EPOCH": 8791, "BSTAR": 0, "MEAN_MOTION_DOT": -8.8e-07, "MEAN_MOTION_DDOT": 0}, "tle": {"line1": "1 37847U 11060B   25344.51629284 -.00000088  00000+0  00000+0 0  9997", "line2": "2 37847  57.0540 346.8806 0004948 308.7520  73.2267  1.70475849 87914"}}, "geometry": {"type": "Point", "coordinates": [166.8787280931144, -0.05844083795442893]}}, {"type": "Feature", "properties": {"norad_id": 38857, "name": "GSAT0103 (GALILEO-FM3)", "group": "galileo", "lat": 50.922873413810514, "lon": -130.4743211770501, "alt_km": 23223.427670165587, "timestamp": "2025-12-11T22:43:47.531572+00:00", "meta": {"OBJECT_NAME": "GSAT0103 (GALILEO-FM3)", "OBJECT_ID": "2012-055A", "EPOCH": "2025-12-10T14:16:18.944544", "MEAN_MOTION": 1.70473311, "ECCENTRICITY": 0.00025926, "INCLINATION": 55.6913, "RA_OF_ASC_NODE": 106.7254, "ARG_OF_PERICENTER": 268.6178, "MEAN_ANOMALY": 91.322, "EPHEMERIS_TYPE": 0, "CLASSIFICATION_TYPE": "U", "NORAD_CAT_ID": 38857, "ELEMENT_SET_NO": 999, "REV_AT_EPOCH": 8179, "BSTAR": 0, "MEAN_MOTION_DOT": 1.1e-07, "MEAN_MOTION_DDOT": 0}, "tle": {"line1": "1 38857U 12055A   25344.59466371  .00000011  00000+0  00000+0 0  9993", "line2": "2 38857  55.6913 106.7254 0002592 268.6178  91.3220  1.70473311 81792"}}, "geometry": {"type": "Point", "coordinates": [-130.4743211770501, 50.922873413810514]}}, {"type": "Feature", "properties": {"norad_id": 40128, "name": "GSAT0201 (GALILEO 5)", "group": "galileo", "lat": 35.82534164774026, "lon": -40.20571781588578, "alt_km": 23394.154637861284, "timestamp": "2025-12-11T22:43:47.531585+00:00", "meta": {"OBJECT_NAME": "GSAT0201 (GALILEO 5)", "OBJECT_ID": "2014-050A", "EPOCH": "2025-12-09T03:42:58.517280", "MEAN_MOTION": 1.8551953, "ECCENTRICITY": 0.164755, "INCLINATION": 49.0809, "RA_OF_ASC_NODE": 281.2097, "ARG_OF_PERICENTER": 172.1436, "MEAN_ANOMALY": 190.8359, "EPHEMERIS_TYPE": 0, "CLASSIFICATION_TYPE": "U", "NORAD_CAT_ID": 40128, "ELEMENT_SET_NO": 999, "REV_AT_EPOCH": 7479, "BSTAR": 0, "MEAN_MOTION_DOT": -7.1e-07, "MEAN_MOTION_DDOT": 0}, "tle": {"line1": "1 40128U 14050A   25343.15484395 -.00000071  00000+0  00000+0 0  9998", "line2": "2 40128  49.0809 281.2097 1647550 172.1436 190.8359  1.85519530 74797"}}, "geometry": {"type": "Point", "coordinates": [-40.20571781588578, 35.82534164774026]}}, {"type": "Feature", "properties": {"norad_id": 40129, "name": "GSAT0202 (GALILEO 6)", "group": "galileo", "lat": -48.81900234277232, "lon": -161.62324443399342, "alt_km": 21847.05391673593, "timestamp": "2025-12-11T22:43:47.531598+00:00", "meta": {"OBJECT_NAME": "GSAT0202 (GALILEO 6)", "OBJECT_ID": "2014-050B", "EPOCH": "2025-12-08T20:55:50.636640", "MEAN_MOTION": 1.85520286, "ECCENTRICITY": 0.16482545, "INCLINATION": 49.097, "RA_OF_ASC_NODE": 280.3049, "ARG_OF_PERICENTER": 172.8865, "MEAN_ANOMALY": 189.8198, "EPHEMERIS_TYPE": 0, "CLASSIFICATION_TYPE": "U", "NORAD_CAT_ID": 40129, "ELEMENT_SET_NO": 999, "REV_AT_EPOCH": 7695, "BSTAR": 0, "MEAN_MOTION_DOT": -6.8e-07, "MEAN_MOTION_DDOT": 0}, "tle": {"line1": "1 40129U 14050B   25342.87211385 -.00000068  00000+0  00000+0 0  9990", "line2": "2 40129  49.0970 280.3049 1648254 172.8865 189.8198  1.85520286 76958"}}, "geometry": {"type": "Point", "coordinates": [-161.62324443399342, -48.81900234277232]}}, {"type": "Feature", "properties": {"norad_id": 40544, "name": "GSAT0203 (GALILEO 7)", "group": "galileo", "lat": -56.82118840212869, "lon": -101.91503696822505, "alt_km": 23208.701839029607, "timestamp": "2025-12-11T22:43:47.531609+00:00", "meta": {"OBJECT_NAME": "GSAT0203 (GALILEO 7)", "OBJECT_ID": "2015-017A", "EPOCH": "2025-12-11T12:08:22.810848", "MEAN_MOTION": 1.70475934, "ECCENTRICITY": 0.00065093, "INCLINATION": 56.8465, "RA_OF_ASC_NODE": 346.7135, "ARG_OF_PERICENTER": 271.8959, "MEAN_ANOMALY": 88.0466, "EPHEMERIS_TYPE": 0, "CLASSIFICATION_TYPE": "U", "NORAD_CAT_ID": 40544, "ELEMENT_SET_NO": 999, "REV_AT_EPOCH": 6600, "BSTAR": 0, "MEAN_MOTION_DOT": -8.8e-07, "MEAN_MOTION_DDOT": 0}, "tle": {"line1": "1 40544U 15017A   25345.50581957 -.00000088  00000+0  00000+0 0  9995", "line2": "2 40544  56.8465 346.7135 0006509 271.8959  88.0466  1.70475934 66007"}}, "geometry": {"type": "Point", "coordinates": [-101.91503696822505, -56.82118840212869]}}, {"type": "Feature", "properties": {"norad_id": 40545, "name": "GSAT0204 (GALILEO 8)", "group": "galileo", "lat": 49.910417040486735, "lon": 115.79089972956672, "alt_km": 23232.01073930447, "timestamp": "2025-12-11T22:43:47.531621+00:00", "meta": {"OBJECT_NAME": "GSAT0204 (GALILEO 8)", "OBJECT_ID": "2015-017B", "EPOCH": "2025-12-11T04:11:34.346112", "MEAN_MOTION": 1.70475574, "ECCENTRICITY": 0.0006249, "INCLINATION": 56.853, "RA_OF_ASC_NODE": 346.7403, "ARG_OF_PERICENTER": 262.765, "MEAN_ANOMALY": 97.1808, "EPHEMERIS_TYPE": 0, "CLASSIFICATION_TYPE": "U", "NORAD_CAT_ID": 40545, "ELEMENT_SET_NO": 999, "REV_AT_EPOCH": 2904, "BSTAR": 0, "MEAN_MOTION_DOT": -8.8e-07, "MEAN_MOTION_DDOT": 0}, "tle": {"line1": "1 40545U 15017B   25345.17470308 -.00000088  00000+0  00000+0 0  9996", "line2": "2 40545  56.8530 346.7403 0006249 262.7650  97.1808  1.70475574 29041"}}, "geometry": {"type": "Point", "coordinates": [115.79089972956672, 49.910417040486735]}}, {"type": "Feature", "properties": {"norad_id": 40889, "name": "GSAT0205 (GALILEO 9)", "group": "galileo", "lat": -52.690205732436404, "lon": 113.48963987839444, "alt_km": 23241.94123937202, "timestamp": "2025-12-11T22:43:47.531633+00:00", "meta": {"OBJECT_NAME": "GSAT0205 (GALILEO 9)", "OBJECT_ID": "2015-045A", "EPOCH": "2025-12-10T08:33:32.148576", "MEAN_MOTION": 1.7047308, "ECCENTRICITY": 0.0005904, "INCLINATION": 55.0041, "RA_OF_ASC_NODE": 226.8241, "ARG_OF_PERICENTER": 38.7722, "MEAN_ANOMALY": 321.3515, "EPHEMERIS_TYPE": 0, "CLASSIFICATION_TYPE": "U", "NORAD_CAT_ID": 40889, "ELEMENT_SET_NO": 999, "REV_AT_EPOCH": 6379, "BSTAR": 0, "MEAN_MOTION_DOT": 9e-08, "MEAN_MOTION_DDOT": 0}, "tle": {"line1": "1 40889U 15045A   25344.35662209  .00000009  00000+0  00000+0 0  9992", "line2": "2 40889  55.0041 226.8241 0005904  38.7722 321.3515  1.70473080 63793"}}, "geometry": {"type": "Point", "coordinates": [113.48963987839444, -52.690205732436404]}}, {"type": "Feature", "properties": {"norad_id": 40890, "name": "GSAT0206 (GALILEO 10)", "group": "galileo", "lat": 44.732027045147724, "lon": 2.8802146607094143, "alt_km": 23215.701183238332, "timestamp": "2025-12-11T22:43:47.531646+00:00", "meta": {"OBJECT_NAME": "GSAT0206 (GALILEO 10)", "OBJECT_ID": "2015-045B", "EPOCH": "2025-12-11T03:55:56.933760", "MEAN_MOTION": 1.70473071, "ECCENTRICITY": 0.00038554, "INCLINATION": 55.0029, "RA_OF_ASC_NODE": 226.7968, "ARG_OF_PERICENTER": 36.8797, "MEAN_ANOMALY": 323.2259, "EPHEMERIS_TYPE": 0, "CLASSIFICATION_TYPE": "U", "NORAD_CAT_ID": 40890, "ELEMENT_SET_NO": 999, "REV_AT_EPOCH": 6383, "BSTAR": 0, "MEAN_MOTION_DOT": 9e-08, "MEAN_MOTION_DDOT": 0}, "tle": {"line1": "1 40890U 15045B   25345.16385340  .00000009  00000+0  00000+0 0  9992", "line2": "2 40890  55.0029 226.7968 0003855  36.8797 323.2259  1.70473071 63831"}}, "geometry": {"type": "Point", "coordinates": [2.8802146607094143, 44.732027045147724]}}, {"type": "Feature", "properties": {"norad_id": 41174, "name": "GSAT0209 (GALILEO 12)", "group": "galileo", "lat": 14.39241941377017, "lon": 116.46629807416662, "alt_km": 23214.09419656215, "timestamp": "2025-12-11T22:43:47.531670+00:00", "meta": {"OBJECT_NAME": "GSAT0209 (GALILEO 12)", "OBJECT_ID": "2015-079A", "EPOCH": "2025-12-10T17:53:22.611840", "MEAN_MOTION": 1.70474458, "ECCENTRICITY": 0.00024095, "INCLINATION": 55.7117, "RA_OF_ASC_NODE": 106.4357, "ARG_OF_PERICENTER": 351.4479, "MEAN_ANOMALY": 8.5179, "EPHEMERIS_TYPE": 0, "CLASSIFICATION_TYPE": "U", "NORAD_CAT_ID": 41174, "ELEMENT_SET_NO": 999, "REV_AT_EPOCH": 6156, "BSTAR": 0, "MEAN_MOTION_DOT": 1.1e-07, "MEAN_MOTION_DDOT": 0}, "tle": {"line1": "1 41174U 15079A   25344.74540060  .00000011  00000+0  00000+0 0  9993", "line2": "2 41174  55.7117 106.4357 0002409 351.4479   8.5179  1.70474458 61567"}}, "geometry": {"type": "Point", "coordinates": [116.46629807416662, 14.39241941377017]}}]}